start=new Date('2022-07-05T00:00:00.000Z').valueOf();
sats=[{"LAUNCH_DATE":"2022-05-14","PERIOD":"91.965","TLE_LINE2":"2 52614  53.2171 186.8672 0001228  67.7757  78.2722 15.65810472  1300","BSTAR":"-0.01133600000000","CLASSIFICATION_TYPE":"U","ELEMENT_SET_NO":"999","MEAN_MOTION_DOT":"-0.01051422","FILE":"3507746","COUNTRY_CODE":"US","OBJECT_NAME":"STARLINK-3982","SEMIMAJOR_AXIS":"6749.046","MEAN_ANOMALY":"78.2722","REV_AT_EPOCH":"130","EPOCH":"2022-07-04T22:00:00.999936","EPHEMERIS_TYPE":"0","GP_ID":"207420302","MEAN_MOTION_DDOT":"0.0000000000000","CENTER_NAME":"EARTH","OBJECT_TYPE":"PAYLOAD","MEAN_ELEMENT_THEORY":"SGP4","MEAN_MOTION":"15.65810472","TLE_LINE1":"1 52614U 22052S   22185.91667824 -.01051422  00000-0 -11336-1 0  9992","OBJECT_ID":"2022-052S","REF_FRAME":"TEME","SITE":"AFETR","ECCENTRICITY":"0.00012280","PERIAPSIS":"370.082","RA_OF_ASC_NODE":"186.8672","TIME_SYSTEM":"UTC","INCLINATION":"53.2171","ARG_OF_PERICENTER":"67.7757","RCS_SIZE":"LARGE","APOAPSIS":"371.740","DECAY_DATE":null,"NORAD_CAT_ID":"52614"},{"ECCENTRICITY":"0.00012850","MEAN_MOTION":"15.08827169","TLE_LINE1":"1 52615U 22052T   22185.91667824  .00043213  00000-0  27176-2 0  9999","OBJECT_ID":"2022-052T","REF_FRAME":"TEME","SITE":"AFETR","DECAY_DATE":null,"NORAD_CAT_ID":"52615","RA_OF_ASC_NODE":"196.5505","PERIAPSIS":"538.896","TIME_SYSTEM":"UTC","INCLINATION":"53.2133","APOAPSIS":"540.674","RCS_SIZE":"LARGE","ARG_OF_PERICENTER":"55.4103","OBJECT_NAME":"STARLINK-4011","SEMIMAJOR_AXIS":"6917.920","MEAN_ANOMALY":"235.0457","REV_AT_EPOCH":"130","EPOCH":"2022-07-04T22:00:00.999936","LAUNCH_DATE":"2022-05-14","CLASSIFICATION_TYPE":"U","TLE_LINE2":"2 52615  53.2133 196.5505 0001285  55.4103 235.0457 15.08827169  1300","PERIOD":"95.438","BSTAR":"0.00271760000000","ELEMENT_SET_NO":"999","MEAN_MOTION_DOT":"0.00043213","FILE":"3507746","COUNTRY_CODE":"US","CENTER_NAME":"EARTH","OBJECT_TYPE":"PAYLOAD","MEAN_ELEMENT_THEORY":"SGP4","EPHEMERIS_TYPE":"0","GP_ID":"207419762","MEAN_MOTION_DDOT":"0.0000000000000"},{"CENTER_NAME":"EARTH","OBJECT_TYPE":"PAYLOAD","MEAN_ELEMENT_THEORY":"SGP4","EPHEMERIS_TYPE":"0","GP_ID":"207420214","MEAN_MOTION_DDOT":"0.0000000000000","OBJECT_NAME":"STARLINK-4015","SEMIMAJOR_AXIS":"6749.006","MEAN_ANOMALY":"78.6430","REV_AT_EPOCH":"130","EPOCH":"2022-07-04T22:00:00.999936","LAUNCH_DATE":"2022-05-14","TLE_LINE2":"2 52616  53.2171 186.8745 0001235  68.7529  78.6430 15.65824452  1302","BSTAR":"-0.01133200000000","PERIOD":"91.964","CLASSIFICATION_TYPE":"U","ELEMENT_SET_NO":"999","MEAN_MOTION_DOT":"-0.01051626","FILE":"3507746","COUNTRY_CODE":"US","DECAY_DATE":null,"NORAD_CAT_ID":"52616","PERIAPSIS":"370.037","RA_OF_ASC_NODE":"186.8745","TIME_SYSTEM":"UTC","INCLINATION":"53.2171","RCS_SIZE":"LARGE","ARG_OF_PERICENTER":"68.7529","APOAPSIS":"371.704","ECCENTRICITY":"0.00012350","MEAN_MOTION":"15.65824452","OBJECT_ID":"2022-052U","TLE_LINE1":"1 52616U 22052U   22185.91667824 -.01051626  00000-0 -11332-1 0  9996","REF_FRAME":"TEME","SITE":"AFETR"},{"ECCENTRICITY":"0.00011970","OBJECT_ID":"2022-052V","TLE_LINE1":"1 52617U 22052V   22185.91667824 -.01051552  00000-0 -11333-1 0  9996","MEAN_MOTION":"15.65820677","SITE":"AFETR","REF_FRAME":"TEME","DECAY_DATE":null,"NORAD_CAT_ID":"52617","TIME_SYSTEM":"UTC","RA_OF_ASC_NODE":"186.8781","PERIAPSIS":"370.074","ARG_OF_PERICENTER":"73.5623","RCS_SIZE":"MEDIUM","APOAPSIS":"371.689","INCLINATION":"53.2171","MEAN_ANOMALY":"76.7646","REV_AT_EPOCH":"130","OBJECT_NAME":"STARLINK-3996","SEMIMAJOR_AXIS":"6749.017","EPOCH":"2022-07-04T22:00:00.999936","PERIOD":"91.965","TLE_LINE2":"2 52617  53.2171 186.8781 0001197  73.5623  76.7646 15.65820677  1302","BSTAR":"-0.01133300000000","CLASSIFICATION_TYPE":"U","ELEMENT_SET_NO":"999","LAUNCH_DATE":"2022-05-14","FILE":"3507746","MEAN_MOTION_DOT":"-0.01051552","COUNTRY_CODE":"US","CENTER_NAME":"EARTH","MEAN_ELEMENT_THEORY":"SGP4","OBJECT_TYPE":"PAYLOAD","GP_ID":"207420451","EPHEMERIS_TYPE":"0","MEAN_MOTION_DDOT":"0.0000000000000"},{"SITE":"AFETR","REF_FRAME":"TEME","OBJECT_ID":"2022-052W","TLE_LINE1":"1 52618U 22052W   22185.91667824 -.01051713  00000-0 -11330-1 0  9993","MEAN_MOTION":"15.65831437","ECCENTRICITY":"0.00011970","APOAPSIS":"371.658","RCS_SIZE":"LARGE","ARG_OF_PERICENTER":"75.0144","INCLINATION":"53.2171","TIME_SYSTEM":"UTC","PERIAPSIS":"370.043","RA_OF_ASC_NODE":"186.8781","NORAD_CAT_ID":"52618","DECAY_DATE":null,"COUNTRY_CODE":"US","MEAN_MOTION_DOT":"-0.01051713","FILE":"3507746","ELEMENT_SET_NO":"999","PERIOD":"91.964","TLE_LINE2":"2 52618  53.2171 186.8781 0001197  75.0144  73.0553 15.65831437  1301","CLASSIFICATION_TYPE":"U","BSTAR":"-0.01133000000000","LAUNCH_DATE":"2022-05-14","EPOCH":"2022-07-04T22:00:00.999936","REV_AT_EPOCH":"130","MEAN_ANOMALY":"73.0553","SEMIMAJOR_AXIS":"6748.986","OBJECT_NAME":"STARLINK-3983","MEAN_MOTION_DDOT":"0.0000000000000","GP_ID":"207419951","EPHEMERIS_TYPE":"0","MEAN_ELEMENT_THEORY":"SGP4","OBJECT_TYPE":"PAYLOAD","CENTER_NAME":"EARTH"},{"ECCENTRICITY":"0.00012510","SITE":"AFETR","REF_FRAME":"TEME","TLE_LINE1":"1 52619U 22052X   22185.91667824 -.01051499  00000-0 -11329-1 0  9993","OBJECT_ID":"2022-052X","MEAN_MOTION":"15.65827526","NORAD_CAT_ID":"52619","DECAY_DATE":null,"APOAPSIS":"371.706","RCS_SIZE":"LARGE","ARG_OF_PERICENTER":"66.6140","INCLINATION":"53.2171","TIME_SYSTEM":"UTC","PERIAPSIS":"370.018","RA_OF_ASC_NODE":"186.8804","EPOCH":"2022-07-04T22:00:00.999936","MEAN_ANOMALY":"84.3869","REV_AT_EPOCH":"130","OBJECT_NAME":"STARLINK-3741","SEMIMAJOR_AXIS":"6748.997","MEAN_MOTION_DOT":"-0.01051499","FILE":"3507746","COUNTRY_CODE":"US","BSTAR":"-0.01132900000000","TLE_LINE2":"2 52619  53.2171 186.8804 0001251  66.6140  84.3869 15.65827526  1300","PERIOD":"91.964","CLASSIFICATION_TYPE":"U","ELEMENT_SET_NO":"999","LAUNCH_DATE":"2022-05-14","MEAN_ELEMENT_THEORY":"SGP4","OBJECT_TYPE":"PAYLOAD","CENTER_NAME":"EARTH","MEAN_MOTION_DDOT":"0.0000000000000","GP_ID":"207420114","EPHEMERIS_TYPE":"0"},{"PERIAPSIS":"538.770","RA_OF_ASC_NODE":"196.5503","TIME_SYSTEM":"UTC","INCLINATION":"53.2129","RCS_SIZE":"LARGE","APOAPSIS":"540.890","ARG_OF_PERICENTER":"59.7457","DECAY_DATE":null,"NORAD_CAT_ID":"52620","MEAN_MOTION":"15.08812317","TLE_LINE1":"1 52620U 22052Y   22185.91667824  .00045000  00000-0  28297-2 0  9996","OBJECT_ID":"2022-052Y","REF_FRAME":"TEME","SITE":"AFETR","ECCENTRICITY":"0.00015320","EPHEMERIS_TYPE":"0","GP_ID":"207419862","MEAN_MOTION_DDOT":"0.0000000000000","CENTER_NAME":"EARTH","OBJECT_TYPE":"PAYLOAD","MEAN_ELEMENT_THEORY":"SGP4","LAUNCH_DATE":"2022-05-14","ELEMENT_SET_NO":"999","BSTAR":"0.00282970000000","TLE_LINE2":"2 52620  53.2129 196.5503 0001532  59.7457 250.6524 15.08812317  1300","PERIOD":"95.439","CLASSIFICATION_TYPE":"U","COUNTRY_CODE":"US","FILE":"3507746","MEAN_MOTION_DOT":"0.00045000","SEMIMAJOR_AXIS":"6917.965","OBJECT_NAME":"STARLINK-3975","REV_AT_EPOCH":"130","MEAN_ANOMALY":"250.6524","EPOCH":"2022-07-04T22:00:00.999936"},{"TIME_SYSTEM":"UTC","PERIAPSIS":"369.991","RA_OF_ASC_NODE":"186.8876","APOAPSIS":"371.614","RCS_SIZE":"LARGE","ARG_OF_PERICENTER":"75.1147","INCLINATION":"53.2172","DECAY_DATE":null,"NORAD_CAT_ID":"52621","TLE_LINE1":"1 52621U 22052Z   22185.91667824 -.01051604  00000-0 -11321-1 0  9996","OBJECT_ID":"2022-052Z","MEAN_MOTION":"15.65848161","SITE":"AFETR","REF_FRAME":"TEME","ECCENTRICITY":"0.00012020","GP_ID":"207420402","EPHEMERIS_TYPE":"0","MEAN_MOTION_DDOT":"0.0000000000000","CENTER_NAME":"EARTH","MEAN_ELEMENT_THEORY":"SGP4","OBJECT_TYPE":"PAYLOAD","TLE_LINE2":"2 52621  53.2172 186.8876 0001202  75.1147  77.9079 15.65848161  1300","PERIOD":"91.963","BSTAR":"-0.01132100000000","CLASSIFICATION_TYPE":"U","ELEMENT_SET_NO":"999","LAUNCH_DATE":"2022-05-14","MEAN_MOTION_DOT":"-0.01051604","FILE":"3507746","COUNTRY_CODE":"US","MEAN_ANOMALY":"77.9079","REV_AT_EPOCH":"130","OBJECT_NAME":"STARLINK-3984","SEMIMAJOR_AXIS":"6748.938","EPOCH":"2022-07-04T22:00:00.999936"},{"CENTER_NAME":"EARTH","MEAN_ELEMENT_THEORY":"SGP4","OBJECT_TYPE":"PAYLOAD","GP_ID":"207420303","EPHEMERIS_TYPE":"0","MEAN_MOTION_DDOT":"0.0000000000000","MEAN_ANOMALY":"84.0269","REV_AT_EPOCH":"130","OBJECT_NAME":"STARLINK-4008","SEMIMAJOR_AXIS":"6918.083","EPOCH":"2022-07-04T22:00:00.999936","CLASSIFICATION_TYPE":"U","TLE_LINE2":"2 52622  53.2155 196.5345 0001426  66.4396  84.0269 15.08773628  1300","PERIOD":"95.442","BSTAR":"0.00499700000000","ELEMENT_SET_NO":"999","LAUNCH_DATE":"2022-05-14","FILE":"3507746","MEAN_MOTION_DOT":"0.00079997","COUNTRY_CODE":"US","DECAY_DATE":null,"NORAD_CAT_ID":"52622","TIME_SYSTEM":"UTC","PERIAPSIS":"538.962","RA_OF_ASC_NODE":"196.5345","RCS_SIZE":"LARGE","ARG_OF_PERICENTER":"66.4396","APOAPSIS":"540.935","INCLINATION":"53.2155","ECCENTRICITY":"0.00014260","TLE_LINE1":"1 52622U 22052AA  22185.91667824  .00079997  00000-0  49970-2 0  9991","OBJECT_ID":"2022-052AA","MEAN_MOTION":"15.08773628","SITE":"AFETR","REF_FRAME":"TEME"},{"ECCENTRICITY":"0.00012070","SITE":"AFETR","REF_FRAME":"TEME","OBJECT_ID":"2022-052AB","TLE_LINE1":"1 52623U 22052AB  22185.91667824 -.01051648  00000-0 -11321-1 0  9996","MEAN_MOTION":"15.65849285","NORAD_CAT_ID":"52623","DECAY_DATE":null,"RCS_SIZE":"LARGE","APOAPSIS":"371.614","ARG_OF_PERICENTER":"74.2907","INCLINATION":"53.2172","TIME_SYSTEM":"UTC","PERIAPSIS":"369.985","RA_OF_ASC_NODE":"186.8901","EPOCH":"2022-07-04T22:00:00.999936","MEAN_ANOMALY":"79.9334","REV_AT_EPOCH":"130","OBJECT_NAME":"STARLINK-3986","SEMIMAJOR_AXIS":"6748.934","FILE":"3507746","MEAN_MOTION_DOT":"-0.01051648","COUNTRY_CODE":"US","PERIOD":"91.963","TLE_LINE2":"2 52623  53.2172 186.8901 0001207  74.2907  79.9334 15.65849285  1304","BSTAR":"-0.01132100000000","CLASSIFICATION_TYPE":"U","ELEMENT_SET_NO":"999","LAUNCH_DATE":"2022-05-14","MEAN_ELEMENT_THEORY":"SGP4","OBJECT_TYPE":"PAYLOAD","CENTER_NAME":"EARTH","MEAN_MOTION_DDOT":"0.0000000000000","GP_ID":"207419763","EPHEMERIS_TYPE":"0"}];
